[{"OBJECT_NAME":"THEA","OBJECT_ID":"2018-099AQ","EPOCH":"2026-03-09T22:33:02.658240","MEAN_MOTION":15.31454284,"ECCENTRICITY":0.00065849,"INCLINATION":97.4542,"RA_OF_ASC_NODE":137.8815,"ARG_OF_PERICENTER":275.4664,"MEAN_ANOMALY":84.5826,"EPHEMERIS_TYPE":0,"CLASSIFICATION_TYPE":"U","NORAD_CAT_ID":43796,"ELEMENT_SET_NO":999,"REV_AT_EPOCH":39748,"BSTAR":0.00074635274,"MEAN_MOTION_DOT":0.00022649,"MEAN_MOTION_DDOT":0},{"OBJECT_NAME":"STARLINK-32256","OBJECT_ID":"2024-138H","EPOCH":"2026-03-09T21:20:12.998976","MEAN_MOTION":15.30186397,"ECCENTRICITY":0.00011096,"INCLINATION":53.16,"RA_OF_ASC_NODE":308.9896,"ARG_OF_PERICENTER":94.3326,"MEAN_ANOMALY":265.7802,"EPHEMERIS_TYPE":0,"CLASSIFICATION_TYPE":"U","NORAD_CAT_ID":60362,"ELEMENT_SET_NO":999,"REV_AT_EPOCH":9064,"BSTAR":4.412005e-5,"MEAN_MOTION_DOT":9.47e-6,"MEAN_MOTION_DDOT":0}]
